<?xml version="1.0" encoding="UTF-8"?>
<ndm xmlns:xsi="http://www.w3.org/2001/XMLSchema-instance" xsi:noNamespaceSchemaLocation="https://sanaregistry.org/r/ndmxml_unqualified/ndmxml-2.0.0-master-2.0.xsd">
<omm id="CCSDS_OMM_VERS" version="2.0">
<header><CREATION_DATE/><ORIGINATOR/></header><body><segment><metadata><OBJECT_NAME>KUIPER-00008</OBJECT_NAME><OBJECT_ID>2025-088A</OBJECT_ID><CENTER_NAME>EARTH</CENTER_NAME><REF_FRAME>TEME</REF_FRAME><TIME_SYSTEM>UTC</TIME_SYSTEM><MEAN_ELEMENT_THEORY>SGP4</MEAN_ELEMENT_THEORY></metadata><data><meanElements><EPOCH>2026-01-15T05:55:31.699488</EPOCH><MEAN_MOTION>14.98967824</MEAN_MOTION><ECCENTRICITY>.0007398</ECCENTRICITY><INCLINATION>51.8919</INCLINATION><RA_OF_ASC_NODE>330.5762</RA_OF_ASC_NODE><ARG_OF_PERICENTER>282.4634</ARG_OF_PERICENTER><MEAN_ANOMALY>77.5509</MEAN_ANOMALY></meanElements><tleParameters><EPHEMERIS_TYPE>0</EPHEMERIS_TYPE><CLASSIFICATION_TYPE>U</CLASSIFICATION_TYPE><NORAD_CAT_ID>63724</NORAD_CAT_ID><ELEMENT_SET_NO>999</ELEMENT_SET_NO><REV_AT_EPOCH>4004</REV_AT_EPOCH><BSTAR>.31179E-3</BSTAR><MEAN_MOTION_DOT>.3555E-4</MEAN_MOTION_DOT><MEAN_MOTION_DDOT>0</MEAN_MOTION_DDOT></tleParameters></data></segment></body></omm>
<omm id="CCSDS_OMM_VERS" version="2.0">
<header><CREATION_DATE/><ORIGINATOR/></header><body><segment><metadata><OBJECT_NAME>KUIPER-00009</OBJECT_NAME><OBJECT_ID>2025-088B</OBJECT_ID><CENTER_NAME>EARTH</CENTER_NAME><REF_FRAME>TEME</REF_FRAME><TIME_SYSTEM>UTC</TIME_SYSTEM><MEAN_ELEMENT_THEORY>SGP4</MEAN_ELEMENT_THEORY></metadata><data><meanElements><EPOCH>2026-01-15T07:10:47.530272</EPOCH><MEAN_MOTION>14.79894012</MEAN_MOTION><ECCENTRICITY>.0009847</ECCENTRICITY><INCLINATION>51.9039</INCLINATION><RA_OF_ASC_NODE>342.7177</RA_OF_ASC_NODE><ARG_OF_PERICENTER>285.2244</ARG_OF_PERICENTER><MEAN_ANOMALY>74.7629</MEAN_ANOMALY></meanElements><tleParameters><EPHEMERIS_TYPE>0</EPHEMERIS_TYPE><CLASSIFICATION_TYPE>U</CLASSIFICATION_TYPE><NORAD_CAT_ID>63725</NORAD_CAT_ID><ELEMENT_SET_NO>999</ELEMENT_SET_NO><REV_AT_EPOCH>3987</REV_AT_EPOCH><BSTAR>-.12815E-2</BSTAR><MEAN_MOTION_DOT>-.9977E-4</MEAN_MOTION_DOT><MEAN_MOTION_DDOT>0</MEAN_MOTION_DDOT></tleParameters></data></segment></body></omm>
<omm id="CCSDS_OMM_VERS" version="2.0">
<header><CREATION_DATE/><ORIGINATOR/></header><body><segment><metadata><OBJECT_NAME>KUIPER-00010</OBJECT_NAME><OBJECT_ID>2025-088C</OBJECT_ID><CENTER_NAME>EARTH</CENTER_NAME><REF_FRAME>TEME</REF_FRAME><TIME_SYSTEM>UTC</TIME_SYSTEM><MEAN_ELEMENT_THEORY>SGP4</MEAN_ELEMENT_THEORY></metadata><data><meanElements><EPOCH>2026-01-15T12:00:01.999296</EPOCH><MEAN_MOTION>14.79835853</MEAN_MOTION><ECCENTRICITY>.0000927</ECCENTRICITY><INCLINATION>51.9021</INCLINATION><RA_OF_ASC_NODE>318.2903</RA_OF_ASC_NODE><ARG_OF_PERICENTER>127.6632</ARG_OF_PERICENTER><MEAN_ANOMALY>264.2760</MEAN_ANOMALY></meanElements><tleParameters><EPHEMERIS_TYPE>0</EPHEMERIS_TYPE><CLASSIFICATION_TYPE>U</CLASSIFICATION_TYPE><NORAD_CAT_ID>63726</NORAD_CAT_ID><ELEMENT_SET_NO>999</ELEMENT_SET_NO><REV_AT_EPOCH>347</REV_AT_EPOCH><BSTAR>-.77731E-3</BSTAR><MEAN_MOTION_DOT>-.6128E-4</MEAN_MOTION_DOT><MEAN_MOTION_DDOT>0</MEAN_MOTION_DDOT></tleParameters></data></segment></body></omm>
<omm id="CCSDS_OMM_VERS" version="2.0">
<header><CREATION_DATE/><ORIGINATOR/></header><body><segment><metadata><OBJECT_NAME>KUIPER-00011</OBJECT_NAME><OBJECT_ID>2025-088D</OBJECT_ID><CENTER_NAME>EARTH</CENTER_NAME><REF_FRAME>TEME</REF_FRAME><TIME_SYSTEM>UTC</TIME_SYSTEM><MEAN_ELEMENT_THEORY>SGP4</MEAN_ELEMENT_THEORY></metadata><data><meanElements><EPOCH>2026-01-15T05:59:19.449024</EPOCH><MEAN_MOTION>14.79807762</MEAN_MOTION><ECCENTRICITY>.0011486</ECCENTRICITY><INCLINATION>51.9021</INCLINATION><RA_OF_ASC_NODE>326.9678</RA_OF_ASC_NODE><ARG_OF_PERICENTER>304.5671</ARG_OF_PERICENTER><MEAN_ANOMALY>55.4207</MEAN_ANOMALY></meanElements><tleParameters><EPHEMERIS_TYPE>0</EPHEMERIS_TYPE><CLASSIFICATION_TYPE>U</CLASSIFICATION_TYPE><NORAD_CAT_ID>63727</NORAD_CAT_ID><ELEMENT_SET_NO>999</ELEMENT_SET_NO><REV_AT_EPOCH>3984</REV_AT_EPOCH><BSTAR>-.33731E-3</BSTAR><MEAN_MOTION_DOT>-.2789E-4</MEAN_MOTION_DOT><MEAN_MOTION_DDOT>0</MEAN_MOTION_DDOT></tleParameters></data></segment></body></omm>
<omm id="CCSDS_OMM_VERS" version="2.0">
<header><CREATION_DATE/><ORIGINATOR/></header><body><segment><metadata><OBJECT_NAME>KUIPER-00012</OBJECT_NAME><OBJECT_ID>2025-088E</OBJECT_ID><CENTER_NAME>EARTH</CENTER_NAME><REF_FRAME>TEME</REF_FRAME><TIME_SYSTEM>UTC</TIME_SYSTEM><MEAN_ELEMENT_THEORY>SGP4</MEAN_ELEMENT_THEORY></metadata><data><meanElements><EPOCH>2026-01-15T05:22:36.453792</EPOCH><MEAN_MOTION>14.76668694</MEAN_MOTION><ECCENTRICITY>.0008022</ECCENTRICITY><INCLINATION>51.9027</INCLINATION><RA_OF_ASC_NODE>311.2218</RA_OF_ASC_NODE><ARG_OF_PERICENTER>313.3649</ARG_OF_PERICENTER><MEAN_ANOMALY>46.6643</MEAN_ANOMALY></meanElements><tleParameters><EPHEMERIS_TYPE>0</EPHEMERIS_TYPE><CLASSIFICATION_TYPE>U</CLASSIFICATION_TYPE><NORAD_CAT_ID>63728</NORAD_CAT_ID><ELEMENT_SET_NO>999</ELEMENT_SET_NO><REV_AT_EPOCH>4001</REV_AT_EPOCH><BSTAR>.43691E-3</BSTAR><MEAN_MOTION_DOT>.2869E-4</MEAN_MOTION_DOT><MEAN_MOTION_DDOT>0</MEAN_MOTION_DDOT></tleParameters></data></segment></body></omm>
<omm id="CCSDS_OMM_VERS" version="2.0">
<header><CREATION_DATE/><ORIGINATOR/></header><body><segment><metadata><OBJECT_NAME>KUIPER-00013</OBJECT_NAME><OBJECT_ID>2025-088F</OBJECT_ID><CENTER_NAME>EARTH</CENTER_NAME><REF_FRAME>TEME</REF_FRAME><TIME_SYSTEM>UTC</TIME_SYSTEM><MEAN_ELEMENT_THEORY>SGP4</MEAN_ELEMENT_THEORY></metadata><data><meanElements><EPOCH>2026-01-15T07:09:11.399040</EPOCH><MEAN_MOTION>14.79799729</MEAN_MOTION><ECCENTRICITY>.0005156</ECCENTRICITY><INCLINATION>51.9024</INCLINATION><RA_OF_ASC_NODE>344.1855</RA_OF_ASC_NODE><ARG_OF_PERICENTER>209.0873</ARG_OF_PERICENTER><MEAN_ANOMALY>150.9803</MEAN_ANOMALY></meanElements><tleParameters><EPHEMERIS_TYPE>0</EPHEMERIS_TYPE><CLASSIFICATION_TYPE>U</CLASSIFICATION_TYPE><NORAD_CAT_ID>63729</NORAD_CAT_ID><ELEMENT_SET_NO>999</ELEMENT_SET_NO><REV_AT_EPOCH>3966</REV_AT_EPOCH><BSTAR>.32748E-3</BSTAR><MEAN_MOTION_DOT>.2268E-4</MEAN_MOTION_DOT><MEAN_MOTION_DDOT>0</MEAN_MOTION_DDOT></tleParameters></data></segment></body></omm>
<omm id="CCSDS_OMM_VERS" version="2.0">
<header><CREATION_DATE/><ORIGINATOR/></header><body><segment><metadata><OBJECT_NAME>KUIPER-00014</OBJECT_NAME><OBJECT_ID>2025-088G</OBJECT_ID><CENTER_NAME>EARTH</CENTER_NAME><REF_FRAME>TEME</REF_FRAME><TIME_SYSTEM>UTC</TIME_SYSTEM><MEAN_ELEMENT_THEORY>SGP4</MEAN_ELEMENT_THEORY></metadata><data><meanElements><EPOCH>2026-01-14T14:53:59.388864</EPOCH><MEAN_MOTION>14.80022948</MEAN_MOTION><ECCENTRICITY>.0004616</ECCENTRICITY><INCLINATION>51.9041</INCLINATION><RA_OF_ASC_NODE>348.1481</RA_OF_ASC_NODE><ARG_OF_PERICENTER>295.9686</ARG_OF_PERICENTER><MEAN_ANOMALY>64.0800</MEAN_ANOMALY></meanElements><tleParameters><EPHEMERIS_TYPE>0</EPHEMERIS_TYPE><CLASSIFICATION_TYPE>U</CLASSIFICATION_TYPE><NORAD_CAT_ID>63730</NORAD_CAT_ID><ELEMENT_SET_NO>999</ELEMENT_SET_NO><REV_AT_EPOCH>3936</REV_AT_EPOCH><BSTAR>.22939E-3</BSTAR><MEAN_MOTION_DOT>.1531E-4</MEAN_MOTION_DOT><MEAN_MOTION_DDOT>0</MEAN_MOTION_DDOT></tleParameters></data></segment></body></omm>
<omm id="CCSDS_OMM_VERS" version="2.0">
<header><CREATION_DATE/><ORIGINATOR/></header><body><segment><metadata><OBJECT_NAME>KUIPER-00015</OBJECT_NAME><OBJECT_ID>2025-088H</OBJECT_ID><CENTER_NAME>EARTH</CENTER_NAME><REF_FRAME>TEME</REF_FRAME><TIME_SYSTEM>UTC</TIME_SYSTEM><MEAN_ELEMENT_THEORY>SGP4</MEAN_ELEMENT_THEORY></metadata><data><meanElements><EPOCH>2026-01-15T08:30:38.282400</EPOCH><MEAN_MOTION>14.82259981</MEAN_MOTION><ECCENTRICITY>.000948</ECCENTRICITY><INCLINATION>51.9007</INCLINATION><RA_OF_ASC_NODE>355.3746</RA_OF_ASC_NODE><ARG_OF_PERICENTER>258.1441</ARG_OF_PERICENTER><MEAN_ANOMALY>101.8459</MEAN_ANOMALY></meanElements><tleParameters><EPHEMERIS_TYPE>0</EPHEMERIS_TYPE><CLASSIFICATION_TYPE>U</CLASSIFICATION_TYPE><NORAD_CAT_ID>63731</NORAD_CAT_ID><ELEMENT_SET_NO>999</ELEMENT_SET_NO><REV_AT_EPOCH>3978</REV_AT_EPOCH><BSTAR>.43016E-3</BSTAR><MEAN_MOTION_DOT>.3243E-4</MEAN_MOTION_DOT><MEAN_MOTION_DDOT>0</MEAN_MOTION_DDOT></tleParameters></data></segment></body></omm>

</ndm>
