KUIPER-00008            
1 63724U 25088A   26015.24689467  .00003555  00000+0  31179-3 0  9996
2 63724  51.8919 330.5762 0007398 282.4634  77.5509 14.98967824 40048
KUIPER-00009            
1 63725U 25088B   26015.29916123 -.00009977  00000+0 -12815-2 0  9995
2 63725  51.9039 342.7177 0009847 285.2244  74.7629 14.79894012 39875
KUIPER-00010            
1 63726U 25088C   26015.50002314 -.00006128  00000+0 -77731-3 0  9992
2 63726  51.9021 318.2903 0000927 127.6632 264.2760 14.79835853  3479
KUIPER-00011            
1 63727U 25088D   26015.24953066 -.00002789  00000+0 -33731-3 0  9994
2 63727  51.9021 326.9678 0011486 304.5671  55.4207 14.79807762 39840
KUIPER-00012            
1 63728U 25088E   26015.22403303  .00002869  00000+0  43691-3 0  9990
2 63728  51.9027 311.2218 0008022 313.3649  46.6643 14.76668694 40012
KUIPER-00013            
1 63729U 25088F   26015.29804860  .00002268  00000+0  32748-3 0  9995
2 63729  51.9024 344.1855 0005156 209.0873 150.9803 14.79799729 39660
KUIPER-00014            
1 63730U 25088G   26014.62082626  .00001531  00000+0  22939-3 0  9994
2 63730  51.9041 348.1481 0004616 295.9686  64.0800 14.80022948 39369
KUIPER-00015            
1 63731U 25088H   26015.35460975  .00003243  00000+0  43016-3 0  9994
2 63731  51.9007 355.3746 0009480 258.1441 101.8459 14.82259981 39787
